BEIDOU-3 M13 (C32)      
1 43622U 18072A   24183.23901946 -.00000070  00000+0  00000+0 0  9993
2 43622  56.0032  86.4109 0006764 311.5189  48.4381  1.86231501 39326
BEIDOU-3 M14 (C33)      
1 43623U 18072B   24185.25229123 -.00000076  00000+0  00000+0 0  9994
2 43623  56.0066  86.3369 0005213 343.3105  16.6903  1.86231546 39359
BEIDOU-3 M16 (C35)      
1 43647U 18078A   24184.87791574 -.00000110  00000+0  00000+0 0  9996
2 43647  54.7036 324.8895 0006707  24.0537 335.9632  1.86232173 38860
BEIDOU-3 M15 (C34)      
1 43648U 18078B   24184.47013754 -.00000109  00000+0  00000+0 0  9998
2 43648  54.6997 324.9064 0003797  41.3652 318.6500  1.86232239 38877
BEIDOU-3 G1 (C59)       
1 43683U 18085A   24184.85761302 -.00000279  00000+0  00000+0 0  9994
2 43683   2.2302 108.9965 0003695   0.5245 260.5813  1.00268009 20892
COSMOS 2529 (757)       
1 43687U 18086A   24184.96890173  .00000100  00000+0  00000+0 0  9992
2 43687  64.2982 216.7441 0011658 259.1590 100.7871  2.13102047 44066
BEIDOU-3 M17 (C36)      
1 43706U 18093A   24184.62068405  .00000103  00000+0  00000+0 0  9993
2 43706  54.2151 206.5474 0010388 279.7295  80.2157  1.86228242 38233
BEIDOU-3 M18 (C37)      
1 43707U 18093B   24184.48590393  .00000104  00000+0  00000+0 0  9995
2 43707  54.2160 206.5437 0008223 303.9053  56.0791  1.86229731 38228
GPS BIII-1  (PRN 04)    
1 43873U 18109A   24185.30605045 -.00000037  00000+0  00000+0 0  9996
2 43873  55.3028 120.3911 0029188 194.7934 352.8457  2.00556703 40705
BEIDOU-3 IGSO-1 (C38)   
1 44204U 19023A   24177.22716906 -.00000212  00000+0  00000+0 0  9997
2 44204  57.6527  45.1385 0018937 207.8304 217.1494  1.00246772 19104
BEIDOU-2 G8 (C01)       
1 44231U 19027A   24184.99891628 -.00000250  00000+0  00000+0 0  9990
2 44231   1.5152  73.8134 0001983 177.8053 173.9894  1.00260664 18913
COSMOS 2534 (758)       
1 44299U 19030A   24183.55531505  .00000099  00000+0  00000+0 0  9994
2 44299  64.3712 216.7468 0013453 278.3092 211.4175  2.13102088 39664
BEIDOU-3 IGSO-2 (C39)   
1 44337U 19035A   24184.89599998 -.00000082  00000+0  00000+0 0  9993
2 44337  55.1824 165.1305 0035477 205.3466 350.6918  1.00292328 18537
GPS BIII-2  (PRN 18)    
1 44506U 19056A   24184.91977536 -.00000096  00000+0  00000+0 0  9990
2 44506  55.8412 359.4612 0043371 188.4159 342.7423  2.00571852 35744
BEIDOU-3 M24 (C46)      
1 44542U 19061A   24184.55538358  .00000104  00000+0  00000+0 0  9990
2 44542  54.4426 206.8391 0007783 341.2381  18.7965  1.86231270 32485
BEIDOU-3 M23 (C45)      
1 44543U 19061B   24184.27493622  .00000105  00000+0  00000+0 0  9995
2 44543  54.4411 206.8173 0005454 319.4571 124.8399  1.86231543 32482
BEIDOU-3 IGSO-3 (C40)   
1 44709U 19073A   24175.72519622 -.00000189  00000+0  00000+0 0  9994
2 44709  56.0384 288.6583 0039278 182.0502 177.9480  1.00247548 17183
BEIDOU-3 M22 (C44)      
1 44793U 19078A   24185.47508764 -.00000112  00000+0  00000+0 0  9996
2 44793  54.5511 324.7990 0005678  33.3923 326.6286  1.86232186 31366
BEIDOU-3 M21 (C43)      
1 44794U 19078B   24184.53094110 -.00000110  00000+0  00000+0 0  9996
2 44794  54.5253 324.8075 0003512  31.8567 328.1509  1.86232602 31343
COSMOS 2544 (759)       
1 44850U 19088A   24185.28323543 -.00000051  00000+0  00000+0 0  9992
2 44850  65.1962  97.6254 0013035 259.2614 100.6020  2.13102084 35486
BEIDOU-3 M19 (C41)      
1 44864U 19090A   24184.42939427 -.00000076  00000+0  00000+0 0  9996
2 44864  55.9384  86.5411 0017323 285.5497 199.1482  1.86231655 30928
BEIDOU-3 M20 (C42)      
1 44865U 19090B   24183.30786328 -.00000070  00000+0  00000+0 0  9997
2 44865  55.9392  86.6120 0015438 299.4266 243.0681  1.86231529 30884
BEIDOU-3 G2 (C60)       
1 45344U 20017A   24185.48703873 -.00000143  00000+0  00000+0 0  9997
2 45344   2.3352  30.2848 0001646 133.6043  13.4774  1.00272133 16113
COSMOS 2545 (760)       
1 45358U 20018A   24185.48015593 -.00000085  00000+0  00000+0 0  9993
2 45358  64.7394 337.3883 0008057 235.3114 124.6051  2.13102527 33451
BEIDOU-3 G3 (C61)       
1 45807U 20040A   24184.89998008 -.00000353  00000+0  00000+0 0  9990
2 45807   0.8032  44.3161 0004505  14.9347 296.7342  1.00270185 14923
GPS BIII-3  (PRN 23)    
1 45854U 20041A   24184.78106192 -.00000078  00000+0  00000+0 0  9990
2 45854  56.1359  56.8137 0043832 192.9504 172.8485  2.00573287 29715
GALAXY 30 (WAAS/PRN 135)
1 46114U 20056C   24184.73073939  .00000039  00000+0  00000+0 0  9999
2 46114   0.0138  53.2642 0001756  52.0255 314.0261  1.00270513 14124
COSMOS 2547 (705K)      
1 46805U 20075A   24184.25961830  .00000101  00000+0  00000+0 0  9990
2 46805  64.6001 216.3690 0008893 241.4819 118.5048  2.13103006 28672
GPS BIII-4  (PRN 14)    
1 46826U 20078A   24184.54032354  .00000050  00000+0  00000+0 0  9991
2 46826  54.1745 239.7843 0047279 197.4776 332.9286  2.00560060 27179
GPS BIII-5  (PRN 11)    
1 48859U 21054A   24184.56006463 -.00000094  00000+0  00000+0 0  9997
2 48859  55.3665   1.1197 0015532 218.3626 150.8174  2.00557019 22424
QZS-1R (QZSS/PRN 196)   
1 49336U 21096A   24184.62276095 -.00000316  00000+0  00000+0 0  9998
2 49336  35.9750  90.2941 0757054 271.8078 276.4457  1.00253399  9840
GSAT0223 (PRN E34)      
1 49809U 21116A   24184.82049181 -.00000094  00000+0  00000+0 0  9995
2 49809  57.2965   0.9443 0002084 159.2569  18.0570  1.70475739 15995
GSAT0224 (PRN E10)      
1 49810U 21116B   24185.52523921 -.00000096  00000+0  00000+0 0  9996
2 49810  57.2989   0.9238 0001786 137.0691 225.2704  1.70475820 16031
COSMOS 2557 (706K)      
1 52984U 22075A   24184.42465949 -.00000078  00000+0  00000+0 0  9990
2 52984  64.6665 339.5538 0010694 278.9757  80.9001  2.13102141 15474
COSMOS 2559 (707K)      
1 54031U 22130A   24184.83685710 -.00000081  00000+0  00000+0 0  9996
2 54031  64.6382 339.6564 0005998 212.2359 147.7234  2.13101416 13466
COSMOS 2564 (761)       
1 54377U 22161A   24184.55862381  .00000101  00000+0  00000+0 0  9995
2 54377  64.7414 216.4664 0011484 224.9528 135.0310  2.13102093 12404
GPS BIII-6  (PRN 28)    
1 55268U 23009A   24184.48622953  .00000082  00000+0  00000+0 0  9996
2 55268  55.0883 176.5673 0000650  89.2967 269.3856  2.00563150 10905
BEIDOU-3 G4             
1 56564U 23066A   24185.17619071 -.00000109  00000+0  00000+0 0  9994
2 56564   2.0828 288.2083 0005796 207.2280   9.5894  1.00269633  4242
IRNSS-1J (NVS-01)       
1 56759U 23076A   24184.78100248 -.00000330  00000+0  00000+0 0  9994
2 56759   3.9581 265.8256 0004562 359.2753  66.7716  1.00264405  3957
COSMOS 2569 (703K)      
1 57517U 23114A   24185.04498676 -.00000052  00000+0  00000+0 0  9996
2 57517  64.9230  96.7771 0010970 297.9912  61.9086  2.13103713  7046
BEIDOU-3 M25            
1 58654U 23207A   24184.07679091 -.00000076  00000+0  00000+0 0  9992
2 58654  55.1212  86.5589 0002617 314.3550  45.6375  1.86232328  3529
BEIDOU-3 M26            
1 58655U 23207B   24183.87578278 -.00000075  00000+0  00000+0 0  9994
2 58655  55.1230  86.5511 0002890 283.7519  76.2298  1.86231920  3501
GSAT0225 (PRN E29)      
1 59598U 24079A   24162.57006490  .00000018  00000+0  00000+0 0  9991
2 59598  54.6844 121.6940 0021386 255.0217 286.2987  1.72327500   744
GSAT0227 (PRN E06)      
1 59600U 24079C   24162.27733522  .00000017  00000+0  00000+0 0  9994
2 59600  54.6843 121.7029 0021406 254.7950 104.9177  1.72327413   794
